QIANFAN-17              
1 60395U 24140S   25322.95909556  .00000048  00000+0  55654-4 0  9996
2 60395  88.9746 301.8960 0013032 276.5738  83.3929 13.50972877 64925
QIANFAN-18              
1 60396U 24140T   25322.93850661  .00000054  00000+0  64845-4 0  9996
2 60396  88.9739 301.4334 0012305 256.6310 103.3469 13.50972860 64313
QIANFAN-19              
1 61552U 24185A   25322.88285696  .00000659  00000+0  33808-3 0  9999
2 61552  88.9813  80.6696 0007760  37.0419 323.1302 14.14260447 66297
QIANFAN-20              
1 61553U 24185B   25322.89416556  .00000751  00000+0  42761-3 0  9993
2 61553  88.9812  80.9681 0007392  70.5623 289.6359 14.08806686 66139
QIANFAN-21              
1 61554U 24185C   25322.90554666  .00000903  00000+0  39797-3 0  9995
2 61554  88.9729  79.7657 0012664  83.8781 276.3853 14.22560906 66585
QIANFAN-22              
1 61555U 24185D   25322.89851725  .00000212  00000+0  17171-3 0  9995
2 61555  88.9794  81.8532 0008310  75.5394 284.6698 13.86290403 65630
QIANFAN-23              
1 61556U 24185E   25322.89187096  .00000621  00000+0  30651-3 0  9991
2 61556  88.9805  80.4895 0008895  45.7433 314.4483 14.16259175 66373
QIANFAN-24              
1 61557U 24185F   25322.85805709  .00000893  00000+0  38455-3 0  9997
2 61557  88.9787  79.9374 0010116  28.4351 331.7391 14.23765424 66629
